{
    "links": {
        "self": "http://www.neowsapp.com/rest/v1/neo/3760435?api_key=iIulBulltgU6a56xZRHN4H3l9WmuAYTsLGpBGhQ2"
    },
    "id": "3760435",
    "neo_reference_id": "3760435",
    "name": "(2016 TF10)",
    "designation": "2016 TF10",
    "nasa_jpl_url": "http://ssd.jpl.nasa.gov/sbdb.cgi?sstr=3760435",
    "absolute_magnitude_h": 25.8,
    "estimated_diameter": {
        "kilometers": {
            "estimated_diameter_min": 0.0183888672,
            "estimated_diameter_max": 0.0411187571
        },
        "meters": {
            "estimated_diameter_min": 18.388867207,
            "estimated_diameter_max": 41.1187571041
        },
        "miles": {
            "estimated_diameter_min": 0.0114263088,
            "estimated_diameter_max": 0.0255500032
        },
        "feet": {
            "estimated_diameter_min": 60.3309310875,
            "estimated_diameter_max": 134.9040630575
        }
    },
    "is_potentially_hazardous_asteroid": false,
    "close_approach_data": [
        {
            "close_approach_date": "2016-09-27",
            "close_approach_date_full": "2016-Sep-27 14:02",
            "epoch_date_close_approach": 1474984920000,
            "relative_velocity": {
                "kilometers_per_second": "6.2584521829",
                "kilometers_per_hour": "22530.4278583007",
                "miles_per_hour": "13999.5316878424"
            },
            "miss_distance": {
                "astronomical": "0.050673959",
                "lunar": "19.712170051",
                "kilometers": "7580716.33086733",
                "miles": "4710438.702055954"
            },
            "orbiting_body": "Earth"
        },
        {
            "close_approach_date": "2149-11-03",
            "close_approach_date_full": "2149-Nov-03 13:17",
            "epoch_date_close_approach": 5675231820000,
            "relative_velocity": {
                "kilometers_per_second": "17.744109441",
                "kilometers_per_hour": "63878.7939876223",
                "miles_per_hour": "39691.7984085868"
            },
            "miss_distance": {
                "astronomical": "0.4310890618",
                "lunar": "167.6936450402",
                "kilometers": "64490005.425578366",
                "miles": "40072231.1974028108"
            },
            "orbiting_body": "Earth"
        }
    ],
    "orbital_data": {
        "orbit_id": "6",
        "orbit_determination_date": "2017-04-06 08:23:23",
        "first_observation_date": "2016-10-04",
        "last_observation_date": "2016-10-24",
        "data_arc_in_days": 20,
        "observations_used": 53,
        "orbit_uncertainty": "7",
        "minimum_orbit_intersection": ".0470142",
        "jupiter_tisserand_invariant": "4.045",
        "epoch_osculation": "2459000.5",
        "eccentricity": ".4013119772027898",
        "semi_major_axis": "1.740262797179395",
        "inclination": "5.411165821805826",
        "ascending_node_longitude": "13.21573888140759",
        "orbital_period": "838.5340084075731",
        "perihelion_distance": "1.041874493190875",
        "perihelion_argument": "339.3874574282274",
        "aphelion_distance": "2.438651101167916",
        "perihelion_time": "2459326.283503434434",
        "mean_anomaly": "220.1344011567019",
        "mean_motion": ".429320691099532",
        "equinox": "J2000",
        "orbit_class": {
            "orbit_class_type": "AMO",
            "orbit_class_description": "Near-Earth asteroid orbits similar to that of 1221 Amor",
            "orbit_class_range": "1.017 AU < q (perihelion) < 1.3 AU"
        }
    },
    "is_sentry_object": false
}